OBJECT_NAME,OBJECT_ID,EPOCH,MEAN_MOTION,ECCENTRICITY,INCLINATION,RA_OF_ASC_NODE,ARG_OF_PERICENTER,MEAN_ANOMALY,EPHEMERIS_TYPE,CLASSIFICATION_TYPE,NORAD_CAT_ID,ELEMENT_SET_NO,REV_AT_EPOCH,BSTAR,MEAN_MOTION_DOT,MEAN_MOTION_DDOT
ONEWEB-0068,2020-020Y,2026-06-28T19:50:30.939072,13.11417772,.00016535,87.8888,18.7471,83.9988,276.1328,0,U,45446,999,30412,-.41175045E-3,-.133E-5,0
ONEWEB-0046,2020-020Z,2026-06-28T23:18:13.814208,13.11417317,.00018687,87.8879,18.7236,79.7706,280.3632,0,U,45447,999,30415,-.13035063E-2,-.449E-5,0
ONEWEB-0063,2020-020AA,2026-06-28T22:10:05.076768,13.11416358,.0002097,87.8890,18.7326,83.0154,277.1212,0,U,45448,999,30423,.15792603E-2,.572E-5,0
ONEWEB-0019,2020-020AB,2026-06-28T19:26:05.299584,13.11416808,.00018212,87.8881,18.7409,92.6922,267.4415,0,U,45449,999,30406,-.15808756E-2,-.548E-5,0
ONEWEB-0094,2020-020AC,2026-06-28T17:53:08.911392,13.17648777,.00016673,87.9143,3.5503,92.7994,267.3328,0,U,45450,999,30783,.13919688E-3,.67E-6,0
ONEWEB-0087,2020-020AD,2026-06-28T22:24:19.921824,13.11415737,.00015386,87.8898,18.7055,83.8633,276.2670,0,U,45451,999,30412,.1411728E-2,.513E-5,0
ONEWEB-0082,2020-020AE,2026-06-28T22:19:27.319584,13.11416382,.00015845,87.8889,18.7218,73.6593,286.4709,0,U,45452,999,30421,.16083883E-2,.583E-5,0
ONEWEB-0050,2020-020AF,2026-06-28T14:58:05.737728,14.90421996,.00011904,88.9291,231.6579,347.6898,12.4302,0,U,45453,999,34208,.18774869E-3,.1849E-4,0
ONEWEB-0034,2020-020AG,2026-06-28T23:13:33.130848,13.11416623,.00018272,87.8888,18.7241,87.1275,273.0063,0,U,45454,999,30413,-.14366677E-2,-.496E-5,0
ONEWEB-0060,2020-020AH,2026-06-28T22:08:40.181856,13.11414942,.00008183,87.8884,18.7297,80.1767,279.9453,0,U,45455,999,30408,.10412899E-2,.382E-5,0
ONEWEB-0086,2020-020AJ,2026-06-28T19:48:04.335552,13.11418898,.00012055,87.8890,18.7457,107.0357,253.0903,0,U,45456,999,30413,-.49376957E-3,-.162E-5,0
ONEWEB-0088,2020-020AK,2026-06-28T22:56:14.833536,13.11414664,.00020336,87.8895,18.6931,77.2337,282.9018,0,U,45457,999,30408,-.12485864E-2,-.43E-5,0
ONEWEB-0102,2020-100A,2026-06-28T22:49:02.392896,13.12441929,.0001767,87.8946,348.3346,102.6069,257.5257,0,U,47258,999,26627,-.1088576E-2,-.379E-5,0
ONEWEB-0109,2020-100B,2026-06-28T21:11:27.410496,13.12442408,.00019395,87.8955,348.3329,97.1657,262.9692,0,U,47259,999,26609,-.1217387E-2,-.425E-5,0
ONEWEB-0110,2020-100C,2026-06-28T21:50:30.753888,13.12441058,.0001525,87.8956,348.3118,98.7913,261.3388,0,U,47260,999,26626,.33065268E-2,.1202E-4,0
ONEWEB-0111,2020-100D,2026-06-28T22:34:24.459168,13.12441141,.00017289,87.8953,348.3241,91.6322,268.5004,0,U,47261,999,26610,-.19269846E-3,-.57E-6,0
ONEWEB-0114,2020-100E,2026-06-28T21:28:31.718784,13.12447161,.00019837,87.8958,348.3312,97.1460,262.9894,0,U,47262,999,26605,-.53885515E-3,-.181E-5,0
ONEWEB-0117,2020-100F,2026-06-28T21:16:19.339680,13.12443254,.00018037,87.8952,348.3234,94.4007,265.7327,0,U,47263,999,26606,-.1470101E-2,-.516E-5,0
ONEWEB-0118,2020-100G,2026-06-28T22:05:07.594656,13.12443894,.0002093,87.8953,348.3192,88.8564,271.2805,0,U,47264,999,26626,.12469561E-2,.461E-5,0
ONEWEB-0119,2020-100H,2026-06-28T22:41:42.936576,13.12440772,.00018478,87.8943,348.3297,93.4068,266.7272,0,U,47265,999,26624,-.66026991E-3,-.225E-5,0
ONEWEB-0120,2020-100J,2026-06-28T21:26:16.663488,13.12443893,.00019607,87.8945,348.3417,97.3396,262.7955,0,U,47266,999,26626,-.11128988E-2,-.388E-5,0
ONEWEB-0121,2020-100K,2026-06-28T22:58:46.844832,13.12442301,.00015592,87.8953,348.3159,87.6731,272.4576,0,U,47267,999,26618,-.12970815E-2,-.454E-5,0
ONEWEB-0122,2020-100L,2026-06-28T22:50:15.545184,13.12443351,.00018323,87.8956,348.3217,98.5860,261.5476,0,U,47268,999,26609,-.11310896E-2,-.394E-5,0
ONEWEB-0123,2020-100M,2026-06-28T22:44:08.938752,13.12441050,.00019235,87.8943,348.3283,91.4080,268.7269,0,U,47269,999,26623,-.82313721E-3,-.283E-5,0
ONEWEB-0124,2020-100N,2026-06-28T22:29:31.104384,13.12440992,.00017443,87.8942,348.3333,91.1259,269.0070,0,U,47270,999,26611,.12050125E-3,.56E-6,0
ONEWEB-0125,2020-100P,2026-06-28T21:57:48.713760,13.12442816,.00017882,87.8954,348.3225,82.6477,277.4855,0,U,47271,999,26617,.12402706E-2,.459E-5,0
ONEWEB-0126,2020-100Q,2026-06-28T22:27:17.687232,13.12441894,.00019334,87.8947,348.3333,94.8473,265.2876,0,U,47272,999,26624,.39340499E-3,.154E-5,0
ONEWEB-0127,2020-100R,2026-06-28T21:38:17.730240,13.12443165,.00019336,87.8942,348.3383,96.3225,263.8124,0,U,47273,999,26626,.17235638E-3,.75E-6,0
ONEWEB-0128,2020-100S,2026-06-28T22:10:00.733440,13.12441774,.00015466,87.8943,348.3477,98.6266,261.5037,0,U,47274,999,26628,.11364008E-2,.422E-5,0
ONEWEB-0129,2020-100T,2026-06-28T21:40:43.583808,13.12444982,.00028044,87.8953,348.3268,107.6786,252.4649,0,U,47275,999,26621,.1907506E-3,.81E-6,0
