[
  {
    "name": "ONEWEB-0068",
    "noradId": "45446",
    "line1": "1 45446U 20020Y   26179.82674698 -.00000133  00000+0 -41175-3 0  9991",
    "line2": "2 45446  87.8888  18.7471 0001653  83.9988 276.1328 13.11417772304123"
  },
  {
    "name": "ONEWEB-0046",
    "noradId": "45447",
    "line1": "1 45447U 20020Z   26179.97099322 -.00000449  00000+0 -13035-2 0  9996",
    "line2": "2 45447  87.8879  18.7236 0001868  79.7706 280.3632 13.11417317304155"
  },
  {
    "name": "ONEWEB-0063",
    "noradId": "45448",
    "line1": "1 45448U 20020AA  26179.92366987  .00000572  00000+0  15793-2 0  9994",
    "line2": "2 45448  87.8890  18.7326 0002097  83.0154 277.1212 13.11416358304230"
  },
  {
    "name": "ONEWEB-0019",
    "noradId": "45449",
    "line1": "1 45449U 20020AB  26179.80978356 -.00000548  00000+0 -15809-2 0  9994",
    "line2": "2 45449  87.8881  18.7409 0001821  92.6922 267.4415 13.11416808304064"
  },
  {
    "name": "ONEWEB-0094",
    "noradId": "45450",
    "line1": "1 45450U 20020AC  26179.74524203  .00000067  00000+0  13920-3 0  9994",
    "line2": "2 45450  87.9143   3.5503 0001667  92.7994 267.3328 13.17648777307831"
  },
  {
    "name": "ONEWEB-0087",
    "noradId": "45451",
    "line1": "1 45451U 20020AD  26179.93356391  .00000513  00000+0  14117-2 0  9991",
    "line2": "2 45451  87.8898  18.7055 0001538  83.8633 276.2670 13.11415737304126"
  },
  {
    "name": "ONEWEB-0082",
    "noradId": "45452",
    "line1": "1 45452U 20020AE  26179.93017731  .00000583  00000+0  16084-2 0  9996",
    "line2": "2 45452  87.8889  18.7218 0001584  73.6593 286.4709 13.11416382304214"
  },
  {
    "name": "ONEWEB-0050",
    "noradId": "45453",
    "line1": "1 45453U 20020AF  26179.62367752  .00001849  00000+0  18775-3 0  9990",
    "line2": "2 45453  88.9291 231.6579 0001190 347.6898  12.4302 14.90421996342083"
  },
  {
    "name": "ONEWEB-0034",
    "noradId": "45454",
    "line1": "1 45454U 20020AG  26179.96774457 -.00000496  00000+0 -14367-2 0  9993",
    "line2": "2 45454  87.8888  18.7241 0001827  87.1275 273.0063 13.11416623304132"
  },
  {
    "name": "ONEWEB-0060",
    "noradId": "45455",
    "line1": "1 45455U 20020AH  26179.92268729  .00000382  00000+0  10413-2 0  9990",
    "line2": "2 45455  87.8884  18.7297 0000818  80.1767 279.9453 13.11414942304082"
  },
  {
    "name": "ONEWEB-0086",
    "noradId": "45456",
    "line1": "1 45456U 20020AJ  26179.82505018 -.00000162  00000+0 -49377-3 0  9995",
    "line2": "2 45456  87.8890  18.7457 0001205 107.0357 253.0903 13.11418898304136"
  },
  {
    "name": "ONEWEB-0088",
    "noradId": "45457",
    "line1": "1 45457U 20020AK  26179.95572724 -.00000430  00000+0 -12486-2 0  9996",
    "line2": "2 45457  87.8895  18.6931 0002033  77.2337 282.9018 13.11414664304083"
  },
  {
    "name": "ONEWEB-0102",
    "noradId": "47258",
    "line1": "1 47258U 20100A   26179.95072214 -.00000379  00000+0 -10886-2 0  9999",
    "line2": "2 47258  87.8946 348.3346 0001767 102.6069 257.5257 13.12441929266278"
  },
  {
    "name": "ONEWEB-0109",
    "noradId": "47259",
    "line1": "1 47259U 20100B   26179.88295614 -.00000425  00000+0 -12174-2 0  9997",
    "line2": "2 47259  87.8955 348.3329 0001939  97.1657 262.9692 13.12442408266098"
  },
  {
    "name": "ONEWEB-0110",
    "noradId": "47260",
    "line1": "1 47260U 20100C   26179.91007817  .00001202  00000+0  33065-2 0  9993",
    "line2": "2 47260  87.8956 348.3118 0001525  98.7913 261.3388 13.12441058266264"
  },
  {
    "name": "ONEWEB-0111",
    "noradId": "47261",
    "line1": "1 47261U 20100D   26179.94056087 -.00000057  00000+0 -19270-3 0  9992",
    "line2": "2 47261  87.8953 348.3241 0001728  91.6322 268.5004 13.12441141266100"
  },
  {
    "name": "ONEWEB-0114",
    "noradId": "47262",
    "line1": "1 47262U 20100E   26179.89481156 -.00000181  00000+0 -53886-3 0  9995",
    "line2": "2 47262  87.8958 348.3312 0001983  97.1460 262.9894 13.12447161266059"
  },
  {
    "name": "ONEWEB-0117",
    "noradId": "47263",
    "line1": "1 47263U 20100F   26179.88633495 -.00000516  00000+0 -14701-2 0  9994",
    "line2": "2 47263  87.8952 348.3234 0001803  94.4007 265.7327 13.12443254266067"
  },
  {
    "name": "ONEWEB-0118",
    "noradId": "47264",
    "line1": "1 47264U 20100G   26179.92022679  .00000461  00000+0  12470-2 0  9994",
    "line2": "2 47264  87.8953 348.3192 0002093  88.8564 271.2805 13.12443894266264"
  },
  {
    "name": "ONEWEB-0119",
    "noradId": "47265",
    "line1": "1 47265U 20100H   26179.94563584 -.00000225  00000+0 -66027-3 0  9990",
    "line2": "2 47265  87.8943 348.3297 0001847  93.4068 266.7272 13.12440772266244"
  },
  {
    "name": "ONEWEB-0120",
    "noradId": "47266",
    "line1": "1 47266U 20100J   26179.89324842 -.00000388  00000+0 -11129-2 0  9999",
    "line2": "2 47266  87.8945 348.3417 0001960  97.3396 262.7955 13.12443893266267"
  },
  {
    "name": "ONEWEB-0121",
    "noradId": "47267",
    "line1": "1 47267U 20100K   26179.95748663 -.00000454  00000+0 -12971-2 0  9998",
    "line2": "2 47267  87.8953 348.3159 0001559  87.6731 272.4576 13.12442301266180"
  },
  {
    "name": "ONEWEB-0122",
    "noradId": "47268",
    "line1": "1 47268U 20100L   26179.95156881 -.00000394  00000+0 -11311-2 0  9994",
    "line2": "2 47268  87.8956 348.3217 0001832  98.5860 261.5476 13.12443351266091"
  },
  {
    "name": "ONEWEB-0123",
    "noradId": "47269",
    "line1": "1 47269U 20100M   26179.94732568 -.00000283  00000+0 -82314-3 0  9995",
    "line2": "2 47269  87.8943 348.3283 0001923  91.4080 268.7269 13.12441050266237"
  },
  {
    "name": "ONEWEB-0124",
    "noradId": "47270",
    "line1": "1 47270U 20100N   26179.93716556  .00000056  00000+0  12050-3 0  9991",
    "line2": "2 47270  87.8942 348.3333 0001744  91.1259 269.0070 13.12440992266115"
  },
  {
    "name": "ONEWEB-0125",
    "noradId": "47271",
    "line1": "1 47271U 20100P   26179.91514715  .00000459  00000+0  12403-2 0  9991",
    "line2": "2 47271  87.8954 348.3225 0001788  82.6477 277.4855 13.12442816266171"
  },
  {
    "name": "ONEWEB-0126",
    "noradId": "47272",
    "line1": "1 47272U 20100Q   26179.93562138  .00000154  00000+0  39340-3 0  9998",
    "line2": "2 47272  87.8947 348.3333 0001933  94.8473 265.2876 13.12441894266248"
  },
  {
    "name": "ONEWEB-0127",
    "noradId": "47273",
    "line1": "1 47273U 20100R   26179.90159410  .00000075  00000+0  17236-3 0  9993",
    "line2": "2 47273  87.8942 348.3383 0001933  96.3225 263.8124 13.12443165266266"
  },
  {
    "name": "ONEWEB-0128",
    "noradId": "47274",
    "line1": "1 47274U 20100S   26179.92361960  .00000422  00000+0  11364-2 0  9992",
    "line2": "2 47274  87.8943 348.3477 0001546  98.6266 261.5037 13.12441774266286"
  },
  {
    "name": "ONEWEB-0129",
    "noradId": "47275",
    "line1": "1 47275U 20100T   26179.90328222  .00000081  00000+0  19075-3 0  9994",
    "line2": "2 47275  87.8953 348.3268 0002804 107.6786 252.4649 13.12444982266217"
  }
]